[{"OBJECT_NAME":"STARLINK-31576","OBJECT_ID":"2024-046H","EPOCH":"2026-03-09T12:04:14.224224","MEAN_MOTION":15.30187912,"ECCENTRICITY":0.00012324,"INCLINATION":53.1608,"RA_OF_ASC_NODE":156.0151,"ARG_OF_PERICENTER":99.3978,"MEAN_ANOMALY":260.7162,"EPHEMERIS_TYPE":0,"CLASSIFICATION_TYPE":"U","NORAD_CAT_ID":59208,"ELEMENT_SET_NO":999,"REV_AT_EPOCH":11302,"BSTAR":4.4330292e-5,"MEAN_MOTION_DOT":9.54e-6,"MEAN_MOTION_DDOT":0},{"OBJECT_NAME":"YAOGAN-43 01F","OBJECT_ID":"2024-148F","EPOCH":"2026-03-10T00:23:08.877408","MEAN_MOTION":15.29824616,"ECCENTRICITY":0.00057048,"INCLINATION":34.9925,"RA_OF_ASC_NODE":59.8891,"ARG_OF_PERICENTER":18.4862,"MEAN_ANOMALY":341.6062,"EPHEMERIS_TYPE":0,"CLASSIFICATION_TYPE":"U","NORAD_CAT_ID":60463,"ELEMENT_SET_NO":999,"REV_AT_EPOCH":8707,"BSTAR":0.00058388219,"MEAN_MOTION_DOT":0.00017308,"MEAN_MOTION_DDOT":0}]
